IRIDIUM 113             
1 42803U 17039A   26138.23989823  .00000021  00000+0  56519-6 0  9995
2 42803  86.3964 334.7026 0002277  92.2422 267.9034 14.34217680466899
NORSAT 2                
1 42828U 17042D   26138.76344446  .00007403  00000+0  33366-3 0  9993
2 42828  97.4025 312.6879 0010599 149.3069 210.8788 15.21280753483266
TECHNOSAT               
1 42829U 17042E   26138.72619899  .00002554  00000+0  18480-3 0  9999
2 42829  97.4249 297.5152 0017564 190.7762 169.3091 15.04755400482271
FLYING LAPTOP           
1 42831U 17042G   26138.85405976  .00002698  00000+0  21560-3 0  9997
2 42831  97.4557 295.5432 0017864 220.9283 139.0601 15.00936909482050
WNISAT 1R               
1 42835U 17042L   26138.70651685  .00001577  00000+0  12598-3 0  9991
2 42835  97.4804 295.8898 0009771 263.0136  96.9978 15.01613820482087
LEMUR-2-GREENBERG       
1 42837U 17042N   26138.73751910  .00009880  00000+0  33874-3 0  9993
2 42837  97.3807 319.5226 0010443 109.4482 250.7888 15.30330861483887
LEMUR-2-FURIAUS         
1 42840U 17042R   26138.25182117  .00010967  00000+0  38943-3 0  9991
2 42840  97.3761 317.0642 0008227 161.7936 198.3600 15.29176144483639
CORVUS BC2              
1 42846U 17042X   26138.69785727  .00001571  00000+0  11147-3 0  9999
2 42846  97.4040 301.2041 0012354 205.9532 154.1077 15.06087208482626
CORVUS BC1              
1 42847U 17042Y   26138.36365956  .00001510  00000+0  10679-3 0  9994
2 42847  97.4069 301.6776 0011849 182.5577 177.5592 15.06256630482600
VRSS-2                  
1 42954U 17060A   26138.86786876  .00000600  00000+0  83401-4 0  9999
2 42954  97.6531 177.9126 0016608 190.6603 169.4261 14.81140878464113
MOHAMMED VI-A           
1 43005U 17070A   26138.87866649 -.00000103  00000+0 -73669-5 0  9992
2 43005  97.9566 211.6109 0001562 104.6656 255.4728 14.77093961459657
FENGYUN 3D              
1 43010U 17072A   26138.82977639  .00000120  00000+0  78717-4 0  9992
2 43010  99.0113 112.7247 0002387 112.1163 248.0266 14.19733097440822
NOAA 20 (JPSS-1)        
1 43013U 17073A   26138.81991439  .00000022  00000+0  31280-4 0  9994
2 43013  98.7763  78.5454 0001317  44.9205 315.2077 14.19505664440309
MAKERSAT 0              
1 43016U 17073D   26138.38555918  .00014841  00000+0  41471-3 0  9993
2 43016  97.4666  20.6957 0110697  20.1590 340.3970 15.30759863461907
RADFXSAT (FOX-1B)       
1 43017U 17073E   26138.56848333  .00006433  00000+0  28271-3 0  9991
2 43017  97.4739   6.3981 0153828  71.1424 290.6416 15.12130594460918
JILIN-1 04              
1 43022U 17074A   26138.88507264  .00008805  00000+0  21115-3 0  9993
2 43022  97.4836 247.7397 0002627 309.4026  50.6988 15.41638997469750
JILIN-1 05              
1 43023U 17074B   26138.82526880  .00005653  00000+0  17772-3 0  9995
2 43023  97.4843 244.5982 0004527 347.9957  12.1177 15.33382563469507
JILIN-1 06              
1 43024U 17074C   26138.86002221  .00004171  00000+0  13193-3 0  9995
2 43024  97.4770 241.6764 0006478 356.5455   3.5741 15.33336803469348
IRIDIUM 116             
1 43072U 17083C   26138.77267735  .00000014  00000+0 -22203-5 0  9998
2 43072  86.3958 334.3046 0001862  80.8820 279.2586 14.34218483439950
IRIDIUM 130             
1 43073U 17083D   26138.46188756  .00000065  00000+0  16189-4 0  9990
2 43073  86.3965 334.7071 0002214  82.0688 278.0759 14.34218322439859
LKW-2                   
1 43080U 17084A   26138.85085392  .00003525  00000+0  14010-3 0  9998
2 43080  97.1207 180.0235 0002228  39.5666 320.5735 15.25913746467219
SUPERVIEW-1 03          
1 43099U 18002A   26138.83699201  .00009912  00000+0  25558-3 0  9992
2 43099  97.3132 223.7424 0046195 286.7802  72.8378 15.38273785463854
CARTOSAT-2F             
1 43111U 18004A   26138.89860493  .00000519  00000+0  27877-4 0  9999
2 43111  97.4810 198.8149 0001396  50.4327 309.7031 15.19218062462887
LKW-3                   
1 43146U 18006A   26138.84809830  .00009178  00000+0  27591-3 0  9994
2 43146  97.6584 298.2960 0004041  64.8315 295.3346 15.34630278464219
ASNARO-2                
1 43152U 18007A   26138.80585933  .00005488  00000+0  24029-3 0  9996
2 43152  97.3981 146.1906 0001755  92.2021 267.9416 15.22438247462943
JILIN-1 07              
1 43159U 18008E   26138.81267627  .00005644  00000+0  17268-3 0  9993
2 43159  97.1785 159.5343 0009271 151.8923 208.2823 15.34190590460494
JILIN-1 08              
1 43160U 18008F   26138.86016845  .00004789  00000+0  15111-3 0  9998
2 43160  97.1814 158.9254 0006664 161.5442 198.6043 15.33300050460455
LEMUR-2-KADI            
1 43184U 18014E   26138.54895569  .00313905  00000+0  11138-2 0  9991
2 43184  97.4482  68.2579 0004636 117.9972 242.1769 15.88214064456373
S-NET D                 
1 43186U 18014G   26138.50587716  .00003064  00000+0  16122-3 0  9992
2 43186  97.5387  43.4855 0009910 115.8448 244.3808 15.16363063454266
S-NET B                 
1 43187U 18014H   26138.51675108  .00002744  00000+0  14488-3 0  9994
2 43187  97.5393  43.4820 0010602 112.2144 248.0215 15.16333704454262
