OBJECT_NAME,OBJECT_ID,EPOCH,MEAN_MOTION,ECCENTRICITY,INCLINATION,RA_OF_ASC_NODE,ARG_OF_PERICENTER,MEAN_ANOMALY,EPHEMERIS_TYPE,CLASSIFICATION_TYPE,NORAD_CAT_ID,ELEMENT_SET_NO,REV_AT_EPOCH,BSTAR,MEAN_MOTION_DOT,MEAN_MOTION_DDOT
IRIDIUM 113,2017-039A,2026-05-18T05:45:27.207072,14.34217680,.0002277,86.3964,334.7026,92.2422,267.9034,0,U,42803,999,46689,.56519E-6,.21E-6,0
NORSAT 2,2017-042D,2026-05-18T18:19:21.601344,15.21280753,.0010599,97.4025,312.6879,149.3069,210.8788,0,U,42828,999,48326,.33366E-3,.7403E-4,0
TECHNOSAT,2017-042E,2026-05-18T17:25:43.592736,15.04755400,.0017564,97.4249,297.5152,190.7762,169.3091,0,U,42829,999,48227,.1848E-3,.2554E-4,0
FLYING LAPTOP,2017-042G,2026-05-18T20:29:50.763264,15.00936909,.0017864,97.4557,295.5432,220.9283,139.0601,0,U,42831,999,48205,.2156E-3,.2698E-4,0
WNISAT 1R,2017-042L,2026-05-18T16:57:23.055840,15.01613820,.0009771,97.4804,295.8898,263.0136,96.9978,0,U,42835,999,48208,.12598E-3,.1577E-4,0
LEMUR-2-GREENBERG,2017-042N,2026-05-18T17:42:01.650240,15.30330861,.0010443,97.3807,319.5226,109.4482,250.7888,0,U,42837,999,48388,.33874E-3,.988E-4,0
LEMUR-2-FURIAUS,2017-042R,2026-05-18T06:02:37.349088,15.29176144,.0008227,97.3761,317.0642,161.7936,198.3600,0,U,42840,999,48363,.38943E-3,.10967E-3,0
CORVUS BC2,2017-042X,2026-05-18T16:44:54.868128,15.06087208,.0012354,97.4040,301.2041,205.9532,154.1077,0,U,42846,999,48262,.11147E-3,.1571E-4,0
CORVUS BC1,2017-042Y,2026-05-18T08:43:40.185984,15.06256630,.0011849,97.4069,301.6776,182.5577,177.5592,0,U,42847,999,48260,.10679E-3,.151E-4,0
VRSS-2,2017-060A,2026-05-18T20:49:43.860864,14.81140878,.0016608,97.6531,177.9126,190.6603,169.4261,0,U,42954,999,46411,.83401E-4,.6E-5,0
MOHAMMED VI-A,2017-070A,2026-05-18T21:05:16.784736,14.77093961,.0001562,97.9566,211.6109,104.6656,255.4728,0,U,43005,999,45965,-.73669E-5,-.103E-5,0
FENGYUN 3D,2017-072A,2026-05-18T19:54:52.680096,14.19733097,.0002387,99.0113,112.7247,112.1163,248.0266,0,U,43010,999,44082,.78717E-4,.12E-5,0
NOAA 20 (JPSS-1),2017-073A,2026-05-18T19:40:40.603296,14.19505664,.0001317,98.7763,78.5454,44.9205,315.2077,0,U,43013,999,44030,.3128E-4,.22E-6,0
MAKERSAT 0,2017-073D,2026-05-18T09:15:12.313152,15.30759863,.0110697,97.4666,20.6957,20.1590,340.3970,0,U,43016,999,46190,.41471E-3,.14841E-3,0
RADFXSAT (FOX-1B),2017-073E,2026-05-18T13:38:36.959712,15.12130594,.0153828,97.4739,6.3981,71.1424,290.6416,0,U,43017,999,46091,.28271E-3,.6433E-4,0
JILIN-1 04,2017-074A,2026-05-18T21:14:30.276096,15.41638997,.0002627,97.4836,247.7397,309.4026,50.6988,0,U,43022,999,46975,.21115E-3,.8805E-4,0
JILIN-1 05,2017-074B,2026-05-18T19:48:23.224320,15.33382563,.0004527,97.4843,244.5982,347.9957,12.1177,0,U,43023,999,46950,.17772E-3,.5653E-4,0
JILIN-1 06,2017-074C,2026-05-18T20:38:25.918944,15.33336803,.0006478,97.4770,241.6764,356.5455,3.5741,0,U,43024,999,46934,.13193E-3,.4171E-4,0
IRIDIUM 116,2017-083C,2026-05-18T18:32:39.323040,14.34218483,.0001862,86.3958,334.3046,80.8820,279.2586,0,U,43072,999,43995,-.22203E-5,.14E-6,0
IRIDIUM 130,2017-083D,2026-05-18T11:05:07.085184,14.34218322,.0002214,86.3965,334.7071,82.0688,278.0759,0,U,43073,999,43985,.16189E-4,.65E-6,0
LKW-2,2017-084A,2026-05-18T20:25:13.778688,15.25913746,.0002228,97.1207,180.0235,39.5666,320.5735,0,U,43080,999,46721,.1401E-3,.3525E-4,0
SUPERVIEW-1 03,2018-002A,2026-05-18T20:05:16.109664,15.38273785,.0046195,97.3132,223.7424,286.7802,72.8378,0,U,43099,999,46385,.25558E-3,.9912E-4,0
CARTOSAT-2F,2018-004A,2026-05-18T21:33:59.465952,15.19218062,.0001396,97.4810,198.8149,50.4327,309.7031,0,U,43111,999,46288,.27877E-4,.519E-5,0
LKW-3,2018-006A,2026-05-18T20:21:15.693120,15.34630278,.0004041,97.6584,298.2960,64.8315,295.3346,0,U,43146,999,46421,.27591E-3,.9178E-4,0
ASNARO-2,2018-007A,2026-05-18T19:20:26.246112,15.22438247,.0001755,97.3981,146.1906,92.2021,267.9416,0,U,43152,999,46294,.24029E-3,.5488E-4,0
JILIN-1 07,2018-008E,2026-05-18T19:30:15.229728,15.34190590,.0009271,97.1785,159.5343,151.8923,208.2823,0,U,43159,999,46049,.17268E-3,.5644E-4,0
JILIN-1 08,2018-008F,2026-05-18T20:38:38.554080,15.33300050,.0006664,97.1814,158.9254,161.5442,198.6043,0,U,43160,999,46045,.15111E-3,.4789E-4,0
LEMUR-2-KADI,2018-014E,2026-05-18T13:10:29.771616,15.88214064,.0004636,97.4482,68.2579,117.9972,242.1769,0,U,43184,999,45637,.11138E-2,.313905E-2,0
S-NET D,2018-014G,2026-05-18T12:08:27.786624,15.16363063,.000991,97.5387,43.4855,115.8448,244.3808,0,U,43186,999,45426,.16122E-3,.3064E-4,0
S-NET B,2018-014H,2026-05-18T12:24:07.293312,15.16333704,.0010602,97.5393,43.4820,112.2144,248.0215,0,U,43187,999,45426,.14488E-3,.2744E-4,0
